2025-292J               
1 67001U 25292J   25348.93579735  .00004159  00000+0  30223-3 0  9995
2 67001  97.6570  61.4661 0014233 260.5877  99.3740 15.04329272   728
ZK-1A R/B               
1 67002U 25292K   25348.91150954  .00132664  67501-5  64975-3 0  9991
2 67002  97.7241  61.8650 0217635 358.0352   2.0022 15.55319822   730
HULIANWANG DIGUI 16A    
1 67059U 25295A   25346.21281652 -.00000152  00000+0  34347-5 0  9991
2 67059  50.0035  14.4753 0013628 247.7813 112.1656 14.25879966    41
HULIANWANG DIGUI 16B    
1 67060U 25295B   25346.21279478 -.00000150  00000+0  43989-5 0  9996
2 67060  50.0012  14.4776 0013423 244.6732 115.2792 14.26022254    48
HULIANWANG DIGUI 16D    
1 67062U 25295D   25346.21278330 -.00000151  00000+0  37539-5 0  9999
2 67062  50.0052  14.4731 0012497 251.2247 108.7311 14.25916921    46
HULIANWANG DIGUI 16F    
1 67064U 25295F   25346.21275943 -.00000096  00000+0  26252-4 0  9995
2 67064  50.0027  14.4596 0014902 247.8107 112.1227 14.26957674    44
HULIANWANG DIGUI 16H    
1 67066U 25295H   25346.21273250 -.00000101  00000+0  24354-4 0  9994
2 67066  50.0029  14.4606 0011490 248.6611 111.3077 14.26429655    45
HULIANWANG DIGUI 16J    
1 67067U 25295J   25346.21271476 -.00000145  00000+0  64760-5 0  9997
2 67067  50.0044  14.4694 0010490 253.0387 106.9378 14.26361638    49
KZ-11 R/B               
1 67071U 25296C   25347.16472534  .00801494  46461-5  12973-3 0  9995
2 67071  41.3405  99.1629 0860305 320.0027  34.0350 14.41614344    21
ELECTRON R/B            
1 67072U 25297A   25348.92436404  .01560771  22548-5  12786-2 0  9990
2 67072  97.4828 136.4870 0259727 224.2905 133.7317 15.71495264   130
RAISE-4                 
1 67073U 25297B   25348.95642743  .00006159  00000+0  41310-3 0  9992
2 67073  97.4849 136.4463 0011916 312.6062  47.4160 15.07143687   128
